SAUDISAT 1C             
1 27607U 02058C   23241.74336657  .00001788  00000+0  26197-3 0  9991
2 27607  64.5549  39.3840 0061500 209.2627 150.5027 14.77533204113094
SAUDISAT 2              
1 28371U 04025F   23241.83171167  .00000393  00000+0  10191-3 0  9997
2 28371  98.4395 206.1607 0024978 194.4233 165.6254 14.55016251 17028
SAUDISAT 3              
1 31118U 07012B   23242.35427179  .00000407  00000+0  76406-4 0  9992
2 31118  98.0170 185.2705 0013779 235.9108 124.0791 14.69770396877619
PISAT                   
1 41784U 16059B   23242.03795419  .00000957  00000+0  18662-3 0  9992
2 41784  97.8659 272.1642 0030281 218.7390 141.1643 14.64877623369879
FLYING LAPTOP           
1 42831U 17042G   23242.40469027  .00001430  00000+0  14126-3 0  9991
2 42831  97.3893  75.6775 0012939 344.1404  15.9409 14.93338028333569
SALSAT                  
1 46495U 20068K   23241.83651327  .00003844  00000+0  25057-3 0  9991
2 46495  97.7738 190.6732 0013831 224.2399 135.7724 15.08452455160179
